44709,BEIDOU-3 IGSO-3,2019,1436.01,4200.0,+,55.61,Active,1,GSO,PRC,China,Government/Military,Navigation (Global or Regional Positioning),Long March,1 44709U 19073A   25062.01324496 -.00000160  00000+0  00000+0 0  9994,2 44709  55.6058 285.9701 0041618 182.0193 178.0229  1.00277933 19732,1.00277933,0.0041618,GSO
44793,BEIDOU-3 M22,2019,773.23,800.0,+,54.35,Active,1,MEO,PRC,China,Government/Military,Navigation (Global or Regional Positioning),Long March,1 44793U 19078A   25062.17638340 -.00000060  00000+0  00000+0 0  9994,2 44793  54.3545 316.3464 0007144  26.7092 333.3815  1.86231858 35875,1.86231858,0.0007144,MEO
44794,BEIDOU-3 M21,2019,773.25,800.0,+,54.33,Active,1,MEO,PRC,China,Government/Military,Navigation (Global or Regional Positioning),Long March,1 44794U 19078B   25062.30741388 -.00000061  00000+0  00000+0 0  9998,2 44794  54.3278 316.3125 0005199  20.7934 339.2812  1.86227562 35880,1.86227562,0.0005199,MEO
44864,BEIDOU-3 M19,2019,773.23,800.0,+,56.14,Active,1,MEO,PRC,China,Government/Military,Navigation (Global or Regional Positioning),Long March,1 44864U 19090A   25062.55872241 -.00000002  00000+0  00000+0 0  9995,2 44864  56.1445  78.3963 0020065 285.5332  75.8482  1.86231300 35477,1.862313,0.0020065,MEO
44865,BEIDOU-3 M20,2019,773.23,800.0,+,56.15,Active,1,MEO,PRC,China,Government/Military,Navigation (Global or Regional Positioning),Long March,1 44865U 19090B   25062.49180572 -.00000001  00000+0  00000+0 0  9997,2 44865  56.1461  78.4323 0017644 297.0775 109.1229  1.86231255 35452,1.86231255,0.0017644,MEO
45344,BEIDOU-3 G2,2020,1436.09,2200.0,+,2.69,Active,1,GSO,PRC,China,Government/Military,Navigation (Global or Regional Positioning),Long March,1 45344U 20017A   25062.58961338 -.00000144  00000+0  00000+0 0  9996,2 45344   2.6929  37.9876 0003029 299.4140 116.4838  1.00272056 18545,1.00272056,0.0003029,GSO
45807,BEIDOU-3 G3,2020,1436.06,800.0,+,1.31,Active,1,GSO,PRC,China,Government/Military,Navigation (Global or Regional Positioning),Long March,1 45807U 20040A   25062.56454339 -.00000357  00000+0  00000+0 0  9998,2 45807   1.3139  61.0455 0003091 312.3679 101.9225  1.00274242 17356,1.00274242,0.0003091,GSO
56564,BEIDOU-3 G4,2023,1436.11,-1.0,+,1.48,Active,0,GSO,PRC,China,Unknown,Unknown,Unknown,1 56564U 23066A   25062.61820729 -.00000116  00000+0  00000+0 0  9990,2 56564   1.4805 290.1950 0001703 232.9541  21.0626  1.00270901  6675,1.00270901,0.0001703,GSO
58654,BEIDOU-3 M28,2023,773.23,-1.0,+,55.33,Active,0,MEO,PRC,China,Unknown,Unknown,Unknown,1 58654U 23207A   25062.38867416 -.00000003  00000+0  00000+0 0  9992,2 58654  55.3314  78.2378 0004859 290.9409  69.0508  1.86231911  8070,1.86231911,0.0004859,MEO
58655,BEIDOU-3 M26,2023,773.23,-1.0,+,55.33,Active,0,MEO,PRC,China,Unknown,Unknown,Unknown,1 58655U 23207B   25061.65133729  .00000004  00000+0  00000+0 0  9995,2 58655  55.3328  78.2489 0005635 276.8831  83.1008  1.86231395  8049,1.86231395,0.0005635,MEO
61186,BEIDOU-3 M25,2024,773.24,-1.0,+,54.88,Active,0,MEO,PRC,China,Unknown,Unknown,Unknown,1 61186U 24168B   25062.28332841 -.00000064  00000+0  00000+0 0  9998,2 61186  54.8805 318.5546 0004743 306.2287 235.8172  1.86229759  3013,1.86229759,0.0004743,MEO
61187,BEIDOU-3 M27,2024,773.24,-1.0,+,54.88,Active,0,MEO,PRC,China,Unknown,Unknown,Unknown,1 61187U 24168C   25062.63866692 -.00000066  00000+0  00000+0 0  9996,2 61187  54.8757 318.5271 0002879   2.5233 192.6018  1.86229967  3054,1.86229967,0.0002879,MEO
