[
    {
        "OBJECT_NAME": "BEIDOU-3 IGSO-3",
        "OBJECT_ID": "2019-073A",
        "EPOCH": "2025-03-03T00:19:04.364544",
        "MEAN_MOTION": 1.00277933,
        "ECCENTRICITY": 0.0041618,
        "INCLINATION": 55.6058,
        "RA_OF_ASC_NODE": 285.9701,
        "ARG_OF_PERICENTER": 182.0193,
        "MEAN_ANOMALY": 178.0229,
        "EPHEMERIS_TYPE": 0,
        "CLASSIFICATION_TYPE": "U",
        "NORAD_CAT_ID": 44709,
        "ELEMENT_SET_NO": 999,
        "REV_AT_EPOCH": 1973,
        "BSTAR": 0,
        "MEAN_MOTION_DOT": -1.6e-06,
        "MEAN_MOTION_DDOT": 0
    },
    {
        "OBJECT_NAME": "BEIDOU-3 M22",
        "OBJECT_ID": "2019-078A",
        "EPOCH": "2025-03-03T04:13:59.525760",
        "MEAN_MOTION": 1.86231858,
        "ECCENTRICITY": 0.0007144,
        "INCLINATION": 54.3545,
        "RA_OF_ASC_NODE": 316.3464,
        "ARG_OF_PERICENTER": 26.7092,
        "MEAN_ANOMALY": 333.3815,
        "EPHEMERIS_TYPE": 0,
        "CLASSIFICATION_TYPE": "U",
        "NORAD_CAT_ID": 44793,
        "ELEMENT_SET_NO": 999,
        "REV_AT_EPOCH": 3587,
        "BSTAR": 0,
        "MEAN_MOTION_DOT": -6e-07,
        "MEAN_MOTION_DDOT": 0
    },
    {
        "OBJECT_NAME": "BEIDOU-3 M21",
        "OBJECT_ID": "2019-078B",
        "EPOCH": "2025-03-03T07:22:40.559232",
        "MEAN_MOTION": 1.86227562,
        "ECCENTRICITY": 0.0005199,
        "INCLINATION": 54.3278,
        "RA_OF_ASC_NODE": 316.3125,
        "ARG_OF_PERICENTER": 20.7934,
        "MEAN_ANOMALY": 339.2812,
        "EPHEMERIS_TYPE": 0,
        "CLASSIFICATION_TYPE": "U",
        "NORAD_CAT_ID": 44794,
        "ELEMENT_SET_NO": 999,
        "REV_AT_EPOCH": 3588,
        "BSTAR": 0,
        "MEAN_MOTION_DOT": -6.1e-07,
        "MEAN_MOTION_DDOT": 0
    },
    {
        "OBJECT_NAME": "BEIDOU-3 M19",
        "OBJECT_ID": "2019-090A",
        "EPOCH": "2025-03-03T13:24:33.616224",
        "MEAN_MOTION": 1.862313,
        "ECCENTRICITY": 0.0020065,
        "INCLINATION": 56.1445,
        "RA_OF_ASC_NODE": 78.3963,
        "ARG_OF_PERICENTER": 285.5332,
        "MEAN_ANOMALY": 75.8482,
        "EPHEMERIS_TYPE": 0,
        "CLASSIFICATION_TYPE": "U",
        "NORAD_CAT_ID": 44864,
        "ELEMENT_SET_NO": 999,
        "REV_AT_EPOCH": 3547,
        "BSTAR": 0,
        "MEAN_MOTION_DOT": -2e-08,
        "MEAN_MOTION_DDOT": 0
    },
    {
        "OBJECT_NAME": "BEIDOU-3 M20",
        "OBJECT_ID": "2019-090B",
        "EPOCH": "2025-03-03T11:48:12.014208",
        "MEAN_MOTION": 1.86231255,
        "ECCENTRICITY": 0.0017644,
        "INCLINATION": 56.1461,
        "RA_OF_ASC_NODE": 78.4323,
        "ARG_OF_PERICENTER": 297.0775,
        "MEAN_ANOMALY": 109.1229,
        "EPHEMERIS_TYPE": 0,
        "CLASSIFICATION_TYPE": "U",
        "NORAD_CAT_ID": 44865,
        "ELEMENT_SET_NO": 999,
        "REV_AT_EPOCH": 3545,
        "BSTAR": 0,
        "MEAN_MOTION_DOT": -1e-08,
        "MEAN_MOTION_DDOT": 0
    },
    {
        "OBJECT_NAME": "BEIDOU-3 G2",
        "OBJECT_ID": "2020-017A",
        "EPOCH": "2025-03-03T14:09:02.596032",
        "MEAN_MOTION": 1.00272056,
        "ECCENTRICITY": 0.0003029,
        "INCLINATION": 2.6929,
        "RA_OF_ASC_NODE": 37.9876,
        "ARG_OF_PERICENTER": 299.414,
        "MEAN_ANOMALY": 116.4838,
        "EPHEMERIS_TYPE": 0,
        "CLASSIFICATION_TYPE": "U",
        "NORAD_CAT_ID": 45344,
        "ELEMENT_SET_NO": 999,
        "REV_AT_EPOCH": 1854,
        "BSTAR": 0,
        "MEAN_MOTION_DOT": -1.44e-06,
        "MEAN_MOTION_DDOT": 0
    },
    {
        "OBJECT_NAME": "BEIDOU-3 G3",
        "OBJECT_ID": "2020-040A",
        "EPOCH": "2025-03-03T13:32:56.548896",
        "MEAN_MOTION": 1.00274242,
        "ECCENTRICITY": 0.0003091,
        "INCLINATION": 1.3139,
        "RA_OF_ASC_NODE": 61.0455,
        "ARG_OF_PERICENTER": 312.3679,
        "MEAN_ANOMALY": 101.9225,
        "EPHEMERIS_TYPE": 0,
        "CLASSIFICATION_TYPE": "U",
        "NORAD_CAT_ID": 45807,
        "ELEMENT_SET_NO": 999,
        "REV_AT_EPOCH": 1735,
        "BSTAR": 0,
        "MEAN_MOTION_DOT": -3.57e-06,
        "MEAN_MOTION_DDOT": 0
    },
    {
        "OBJECT_NAME": "BEIDOU-3 G4",
        "OBJECT_ID": "2023-066A",
        "EPOCH": "2025-03-03T14:50:13.109856",
        "MEAN_MOTION": 1.00270901,
        "ECCENTRICITY": 0.0001703,
        "INCLINATION": 1.4805,
        "RA_OF_ASC_NODE": 290.195,
        "ARG_OF_PERICENTER": 232.9541,
        "MEAN_ANOMALY": 21.0626,
        "EPHEMERIS_TYPE": 0,
        "CLASSIFICATION_TYPE": "U",
        "NORAD_CAT_ID": 56564,
        "ELEMENT_SET_NO": 999,
        "REV_AT_EPOCH": 667,
        "BSTAR": 0,
        "MEAN_MOTION_DOT": -1.16e-06,
        "MEAN_MOTION_DDOT": 0
    },
    {
        "OBJECT_NAME": "BEIDOU-3 M28",
        "OBJECT_ID": "2023-207A",
        "EPOCH": "2025-03-03T09:19:41.447424",
        "MEAN_MOTION": 1.86231911,
        "ECCENTRICITY": 0.0004859,
        "INCLINATION": 55.3314,
        "RA_OF_ASC_NODE": 78.2378,
        "ARG_OF_PERICENTER": 290.9409,
        "MEAN_ANOMALY": 69.0508,
        "EPHEMERIS_TYPE": 0,
        "CLASSIFICATION_TYPE": "U",
        "NORAD_CAT_ID": 58654,
        "ELEMENT_SET_NO": 999,
        "REV_AT_EPOCH": 807,
        "BSTAR": 0,
        "MEAN_MOTION_DOT": -3e-08,
        "MEAN_MOTION_DDOT": 0
    },
    {
        "OBJECT_NAME": "BEIDOU-3 M26",
        "OBJECT_ID": "2023-207B",
        "EPOCH": "2025-03-02T15:37:55.541856",
        "MEAN_MOTION": 1.86231395,
        "ECCENTRICITY": 0.0005635,
        "INCLINATION": 55.3328,
        "RA_OF_ASC_NODE": 78.2489,
        "ARG_OF_PERICENTER": 276.8831,
        "MEAN_ANOMALY": 83.1008,
        "EPHEMERIS_TYPE": 0,
        "CLASSIFICATION_TYPE": "U",
        "NORAD_CAT_ID": 58655,
        "ELEMENT_SET_NO": 999,
        "REV_AT_EPOCH": 804,
        "BSTAR": 0,
        "MEAN_MOTION_DOT": 4e-08,
        "MEAN_MOTION_DDOT": 0
    },
    {
        "OBJECT_NAME": "BEIDOU-3 M25",
        "OBJECT_ID": "2024-168B",
        "EPOCH": "2025-03-03T06:47:59.574624",
        "MEAN_MOTION": 1.86229759,
        "ECCENTRICITY": 0.0004743,
        "INCLINATION": 54.8805,
        "RA_OF_ASC_NODE": 318.5546,
        "ARG_OF_PERICENTER": 306.2287,
        "MEAN_ANOMALY": 235.8172,
        "EPHEMERIS_TYPE": 0,
        "CLASSIFICATION_TYPE": "U",
        "NORAD_CAT_ID": 61186,
        "ELEMENT_SET_NO": 999,
        "REV_AT_EPOCH": 301,
        "BSTAR": 0,
        "MEAN_MOTION_DOT": -6.4e-07,
        "MEAN_MOTION_DDOT": 0
    },
    {
        "OBJECT_NAME": "BEIDOU-3 M27",
        "OBJECT_ID": "2024-168C",
        "EPOCH": "2025-03-03T15:19:40.821888",
        "MEAN_MOTION": 1.86229967,
        "ECCENTRICITY": 0.0002879,
        "INCLINATION": 54.8757,
        "RA_OF_ASC_NODE": 318.5271,
        "ARG_OF_PERICENTER": 2.5233,
        "MEAN_ANOMALY": 192.6018,
        "EPHEMERIS_TYPE": 0,
        "CLASSIFICATION_TYPE": "U",
        "NORAD_CAT_ID": 61187,
        "ELEMENT_SET_NO": 999,
        "REV_AT_EPOCH": 305,
        "BSTAR": 0,
        "MEAN_MOTION_DOT": -6.6e-07,
        "MEAN_MOTION_DDOT": 0
    }
]